CCSDS_OMM_VERS = 2.0
CREATION_DATE  = 
ORIGINATOR     = 

OBJECT_NAME    = GXIBA-1
OBJECT_ID      = 1998-067YA
CENTER_NAME    = EARTH
REF_FRAME      = TEME
TIME_SYSTEM    = UTC
MEAN_ELEMENT_THEORY = SGP/SGP4

EPOCH          = 2026-03-18T02:51:07.673184
MEAN_MOTION    = 15.55718972
ECCENTRICITY   = .00118236
INCLINATION    = 51.6318
RA_OF_ASC_NODE = 29.4450
ARG_OF_PERICENTER = 205.4232
MEAN_ANOMALY   = 154.6179

EPHEMERIS_TYPE = 0
CLASSIFICATION_TYPE = U
NORAD_CAT_ID   = 67684
ELEMENT_SET_NO = 999
REV_AT_EPOCH   = 610
BSTAR          = .91268345E-3
MEAN_MOTION_DOT = .6426E-3
MEAN_MOTION_DDOT = 0

CCSDS_OMM_VERS = 2.0
CREATION_DATE  = 
ORIGINATOR     = 

OBJECT_NAME    = CORAL
OBJECT_ID      = 1998-067YB
CENTER_NAME    = EARTH
REF_FRAME      = TEME
TIME_SYSTEM    = UTC
MEAN_ELEMENT_THEORY = SGP/SGP4

EPOCH          = 2026-03-18T03:43:14.914272
MEAN_MOTION    = 15.52965300
ECCENTRICITY   = .00115872
INCLINATION    = 51.6324
RA_OF_ASC_NODE = 29.6861
ARG_OF_PERICENTER = 212.5477
MEAN_ANOMALY   = 147.4800

EPHEMERIS_TYPE = 0
CLASSIFICATION_TYPE = U
NORAD_CAT_ID   = 67685
ELEMENT_SET_NO = 999
REV_AT_EPOCH   = 610
BSTAR          = .565829E-3
MEAN_MOTION_DOT = .35685E-3
MEAN_MOTION_DDOT = 0

CCSDS_OMM_VERS = 2.0
CREATION_DATE  = 
ORIGINATOR     = 

OBJECT_NAME    = ISS OBJECT YC
OBJECT_ID      = 1998-067YC
CENTER_NAME    = EARTH
REF_FRAME      = TEME
TIME_SYSTEM    = UTC
MEAN_ELEMENT_THEORY = SGP/SGP4

EPOCH          = 2026-03-18T01:57:44.960832
MEAN_MOTION    = 15.53669122
ECCENTRICITY   = .00085421
INCLINATION    = 51.6325
RA_OF_ASC_NODE = 29.9492
ARG_OF_PERICENTER = 181.6034
MEAN_ANOMALY   = 178.4931

EPHEMERIS_TYPE = 0
CLASSIFICATION_TYPE = U
NORAD_CAT_ID   = 67686
ELEMENT_SET_NO = 999
REV_AT_EPOCH   = 609
BSTAR          = .66325202E-3
MEAN_MOTION_DOT = .4299E-3
MEAN_MOTION_DDOT = 0

CCSDS_OMM_VERS = 2.0
CREATION_DATE  = 
ORIGINATOR     = 

OBJECT_NAME    = LEOPARD
OBJECT_ID      = 1998-067YD
CENTER_NAME    = EARTH
REF_FRAME      = TEME
TIME_SYSTEM    = UTC
MEAN_ELEMENT_THEORY = SGP/SGP4

EPOCH          = 2026-03-18T09:58:37.493472
MEAN_MOTION    = 15.52752222
ECCENTRICITY   = .0008226
INCLINATION    = 51.6320
RA_OF_ASC_NODE = 28.4288
ARG_OF_PERICENTER = 186.2844
MEAN_ANOMALY   = 173.8044

EPHEMERIS_TYPE = 0
CLASSIFICATION_TYPE = U
NORAD_CAT_ID   = 67687
ELEMENT_SET_NO = 999
REV_AT_EPOCH   = 606
BSTAR          = .51713E-3
MEAN_MOTION_DOT = .32262E-3
MEAN_MOTION_DDOT = 0

CCSDS_OMM_VERS = 2.0
CREATION_DATE  = 
ORIGINATOR     = 

OBJECT_NAME    = ISS OBJECT YE
OBJECT_ID      = 1998-067YE
CENTER_NAME    = EARTH
REF_FRAME      = TEME
TIME_SYSTEM    = UTC
MEAN_ELEMENT_THEORY = SGP/SGP4

EPOCH          = 2026-03-18T03:36:14.572224
MEAN_MOTION    = 15.53349847
ECCENTRICITY   = .00083347
INCLINATION    = 51.6321
RA_OF_ASC_NODE = 29.6558
ARG_OF_PERICENTER = 182.6297
MEAN_ANOMALY   = 177.4651

EPHEMERIS_TYPE = 0
CLASSIFICATION_TYPE = U
NORAD_CAT_ID   = 67688
ELEMENT_SET_NO = 999
REV_AT_EPOCH   = 602
BSTAR          = .6226299E-3
MEAN_MOTION_DOT = .3984E-3
MEAN_MOTION_DDOT = 0

CCSDS_OMM_VERS = 2.0
CREATION_DATE  = 
ORIGINATOR     = 

OBJECT_NAME    = CREW DRAGON 12
OBJECT_ID      = 2026-031A
CENTER_NAME    = EARTH
REF_FRAME      = TEME
TIME_SYSTEM    = UTC
MEAN_ELEMENT_THEORY = SGP/SGP4

EPOCH          = 2026-03-18T08:31:19.348320
MEAN_MOTION    = 15.48355497
ECCENTRICITY   = .0006241
INCLINATION    = 51.6340
RA_OF_ASC_NODE = 29.5200
ARG_OF_PERICENTER = 204.1942
MEAN_ANOMALY   = 155.8754

EPHEMERIS_TYPE = 0
CLASSIFICATION_TYPE = U
NORAD_CAT_ID   = 67796
ELEMENT_SET_NO = 999
REV_AT_EPOCH   = 55759
BSTAR          = .1519E-3
MEAN_MOTION_DOT = .7746E-4
MEAN_MOTION_DDOT = 0

